NORAD_CAT_ID,OBJECT_NAME,OBJECT_TYPE,EPOCH,MEAN_MOTION,ECCENTRICITY,INCLINATION,RA_OF_ASC_NODE,ARG_OF_PERICENTER,MEAN_ANOMALY,BSTAR,MEAN_MOTION_DOT,MEAN_MOTION_DDOT,TLE_LINE0,TLE_LINE1,TLE_LINE2,SEMIMAJOR_AXIS,PERIOD,APOGEE,PERIGEE,DECAYED
55962.0,STARLINK-5906,PAYLOAD,2023-12-25 12:34:08,14.98344938,0.0002793,70.0002,134.7038,252.9884,107.0969,-0.00028696,-3.517e-05,0.0,0 STARLINK-5906,1 55962U 23037BA  23359.52370500 -.00003517  00000-0 -28696-3 0  9998,2 55962  70.0002 134.7038 0002793 252.9884 107.0969 14.98344938 44208,6950.147,96.106,573.953,570.071,0.0
55962.0,STARLINK-5906,PAYLOAD,2023-12-25 14:10:16,14.98333477,0.0002686,70.0003,134.5356,251.6631,108.4236,-9.6359e-05,-1.243e-05,0.0,0 STARLINK-5906,1 55962U 23037BA  23359.59046708 -.00001243  00000-0 -96359-4 0  9991,2 55962  70.0003 134.5356 0002686 251.6631 108.4236 14.98333477 43877,6950.182,96.107,573.914,570.18,0.0
55962.0,STARLINK-5906,PAYLOAD,2023-12-25 18:58:40,14.9833446,0.000286,69.9998,134.0298,258.723,101.3608,-0.00010442,-1.339e-05,0.0,0 STARLINK-5906,1 55962U 23037BA  23359.79074632 -.00001339  00000-0 -10442-3 0  9994,2 55962  69.9998 134.0298 0002860 258.7230 101.3608 14.98334460 43906,6950.179,96.107,574.032,570.056,0.0
55962.0,STARLINK-5906,PAYLOAD,2023-12-26 11:00:01,14.98290221,0.0002553,70.0,132.3472,256.9037,103.1837,0.00058975,6.943e-05,0.0,0 STARLINK-5906,1 55962U 23037BA  23360.45834951  .00006943  00000-0  58975-3 0  9994,2 55962  70.0000 132.3472 0002553 256.9037 103.1837 14.98290221 44341,6950.316,96.11,573.955,570.406,0.0
55962.0,STARLINK-5906,PAYLOAD,2023-12-26 14:12:17,14.98328949,0.0002865,69.9998,132.01,261.0791,99.0044,-4.2072e-05,-5.95e-06,0.0,0 STARLINK-5906,1 55962U 23037BA  23360.59186727 -.00000595  00000-0 -42072-4 0  9991,2 55962  69.9998 132.0100 0002865 261.0791  99.0044 14.98328949 44026,6950.196,96.107,574.052,570.07,0.0
55962.0,STARLINK-5906,PAYLOAD,2023-12-26 19:00:41,14.98331761,0.0002831,69.9999,131.5055,260.0101,100.0739,-1.8043e-05,-3.08e-06,0.0,0 STARLINK-5906,1 55962U 23037BA  23360.79214474 -.00000308  00000-0 -18043-4 0  9997,2 55962  69.9999 131.5055 0002831 260.0101 100.0739 14.98331761 44397,6950.187,96.107,574.02,570.085,0.0
55962.0,STARLINK-5906,PAYLOAD,2023-12-27 14:14:18,14.98328784,0.0002801,70.0,129.4851,265.7981,94.2858,4.6236e-05,4.59e-06,0.0,0 STARLINK-5906,1 55962U 23037BA  23361.59326458  .00000459  00000-0  46236-4 0  9992,2 55962  70.0000 129.4851 0002801 265.7981  94.2858 14.98328784 44171,6950.197,96.107,574.008,570.115,0.0
55962.0,STARLINK-5906,PAYLOAD,2023-12-27 19:02:42,14.98331035,0.0002798,70.0002,128.9807,266.3601,93.7238,6.5382e-05,6.87e-06,0.0,0 STARLINK-5906,1 55962U 23037BA  23361.79354258  .00000687  00000-0  65382-4 0  9999,2 55962  70.0002 128.9807 0002798 266.3601  93.7238 14.98331035 44549,6950.19,96.107,573.999,570.11,0.0
55962.0,STARLINK-5906,PAYLOAD,2023-12-28 14:16:19,14.98331639,0.0002428,70.0002,126.9619,243.5855,116.5055,-8.8831e-05,-1.153e-05,0.0,0 STARLINK-5906,1 55962U 23037BA  23362.59466712 -.00001153  00000-0 -88831-4 0  9992,2 55962  70.0002 126.9619 0002428 243.5855 116.5055 14.98331639 44323,6950.188,96.107,573.74,570.365,0.0
55962.0,STARLINK-5906,PAYLOAD,2023-12-28 19:04:42,14.98345251,0.0002599,69.9994,126.4542,256.9132,103.1737,-0.0002278,-2.811e-05,0.0,0 STARLINK-5906,1 55962U 23037BA  23362.79494060 -.00002811  00000-0 -22780-3 0  9993,2 55962  69.9994 126.4542 0002599 256.9132 103.1737 14.98345251 44699,6950.146,96.106,573.817,570.204,0.0
55962.0,STARLINK-5906,PAYLOAD,2023-12-29 11:06:03,14.98320531,0.0002973,69.9995,124.7711,262.2316,97.8506,0.00014117,1.591e-05,0.0,0 STARLINK-5906,1 55962U 23037BA  23363.46254536  .00001591  00000-0  14117-3 0  9997,2 55962  69.9995 124.7711 0002973 262.2316  97.8506 14.98320531 44797,6950.222,96.108,574.153,570.021,0.0
55962.0,STARLINK-5906,PAYLOAD,2023-12-29 14:18:20,14.98320408,0.0003026,69.9995,124.4342,262.6899,97.3916,0.00014803,1.673e-05,0.0,0 STARLINK-5906,1 55962U 23037BA  23363.59606570  .00001673  00000-0  14803-3 0  9993,2 55962  69.9995 124.4342 0003026 262.6899  97.3916 14.98320408 44472,6950.223,96.108,574.191,569.984,0.0
55962.0,STARLINK-5906,PAYLOAD,2023-12-29 17:30:35,14.98331457,0.0002827,69.9997,124.098,260.7009,99.383,9.8536e-06,2.5e-07,0.0,0 STARLINK-5906,1 55962U 23037BA  23363.72958285  .00000025  00000-0  98536-5 0  9998,2 55962  69.9997 124.0980 0002827 260.7009  99.3830 14.98331457 44493,6950.188,96.107,574.018,570.089,0.0
55962.0,STARLINK-5906,PAYLOAD,2023-12-30 14:20:20,14.9832953,0.0002807,69.9997,121.9098,265.1722,94.9117,3.8775e-05,3.7e-06,0.0,0 STARLINK-5906,1 55962U 23037BA  23364.59746253  .00000370  00000-0  38775-4 0  9995,2 55962  69.9997 121.9098 0002807 265.1722  94.9117 14.98329530 44621,6950.194,96.107,574.01,570.108,0.0
55962.0,STARLINK-5906,PAYLOAD,2023-12-30 17:32:36,14.98328349,0.0002866,69.9996,121.5728,266.6615,93.4217,7.9232e-05,8.52e-06,0.0,0 STARLINK-5906,1 55962U 23037BA  23364.73098226  .00000852  00000-0  79232-4 0  9999,2 55962  69.9996 121.5728 0002866 266.6615  93.4217 14.98328349 44989,6950.198,96.107,574.055,570.071,0.0
55962.0,STARLINK-5906,PAYLOAD,2023-12-31 11:10:06,14.98325321,0.0002836,69.9997,119.7219,268.9815,91.1019,-5.5901e-05,-7.6e-06,0.0,0 STARLINK-5906,1 55962U 23037BA  23365.46534852 -.00000760  00000-0 -55901-4 0  9997,2 55962  69.9997 119.7219 0002836 268.9815  91.1019 14.98325321 45093,6950.207,96.107,574.043,570.101,0.0
55962.0,STARLINK-5906,PAYLOAD,2023-12-31 17:34:38,14.98326108,0.0002831,69.9997,119.0485,268.5812,91.5023,-4.3228e-05,-6.09e-06,0.0,0 STARLINK-5906,1 55962U 23037BA  23365.73238826 -.00000609  00000-0 -43228-4 0  9990,2 55962  69.9997 119.0485 0002831 268.5812  91.5023 14.98326108 44798,6950.205,96.107,574.038,570.102,0.0
55962.0,STARLINK-5906,PAYLOAD,2024-01-01 11:12:06,14.98333355,0.0002919,69.9995,117.1961,270.4081,89.6743,1.2514e-05,5.6e-07,0.0,0 STARLINK-5906,1 55962U 23037BA  24001.46674175  .00000056  00000-0  12514-4 0  9997,2 55962  69.9995 117.1961 0002919 270.4081  89.6743 14.98333355 45241,6950.183,96.107,574.076,570.019,0.0
55962.0,STARLINK-5906,PAYLOAD,2024-01-01 14:24:22,14.98332873,0.0003033,69.9993,116.8596,269.7364,90.3447,2.0384e-05,1.5e-06,0.0,0 STARLINK-5906,1 55962U 23037BA  24001.60026148  .00000150  00000-0  20384-4 0  9993,2 55962  69.9993 116.8596 0003033 269.7364  90.3447 14.98332873 44920,6950.184,96.107,574.157,569.941,0.0
55962.0,STARLINK-5906,PAYLOAD,2024-01-01 17:36:38,14.98336992,0.000305,69.9993,116.5229,270.377,89.7039,4.1493e-05,4.02e-06,0.0,0 STARLINK-5906,1 55962U 23037BA  24001.73377777  .00000402  00000-0  41493-4 0  9998,2 55962  69.9993 116.5229 0003050 270.3770  89.7039 14.98336992 44945,6950.171,96.107,574.156,569.916,0.0
55962.0,STARLINK-5906,PAYLOAD,2024-01-02 11:14:07,14.9832877,0.0002864,69.9999,114.6712,267.5432,92.54,6.8118e-05,7.2e-06,0.0,0 STARLINK-5906,1 55962U 23037BA  24002.46814094  .00000720  00000-0  68118-4 0  9993,2 55962  69.9999 114.6712 0002864 267.5432  92.5400 14.98328770 45391,6950.197,96.107,574.052,570.071,0.0
55962.0,STARLINK-5906,PAYLOAD,2024-01-02 14:26:23,14.98330082,0.0002845,69.9998,114.3343,266.6622,93.4211,6.6321e-05,6.98e-06,0.0,0 STARLINK-5906,1 55962U 23037BA  24002.60166016  .00000698  00000-0  66321-4 0  9991,2 55962  69.9998 114.3343 0002845 266.6622  93.4211 14.98330082 45071,6950.193,96.107,574.035,570.08,0.0
55962.0,STARLINK-5906,PAYLOAD,2024-01-02 17:38:39,14.98331787,0.0002719,70.0,113.9979,264.82,95.2649,8.8993e-05,9.69e-06,0.0,0 STARLINK-5906,1 55962U 23037BA  24002.73517841  .00000969  00000-0  88993-4 0  9991,2 55962  70.0000 113.9979 0002719 264.8200  95.2649 14.98331787 45090,6950.187,96.107,573.942,570.163,0.0
55962.0,STARLINK-5906,PAYLOAD,2024-01-03 11:16:08,14.98326201,0.0002464,70.0012,112.1492,244.3316,115.7588,-3.2178e-05,-4.77e-06,0.0,0 STARLINK-5906,1 55962U 23037BA  24003.46954503 -.00000477  00000-0 -32178-4 0  9992,2 55962  70.0012 112.1492 0002464 244.3316 115.7588 14.98326201 45547,6950.205,96.107,573.782,570.357,0.0
55962.0,STARLINK-5906,PAYLOAD,2024-01-03 14:28:24,14.98324648,0.0002324,70.001,111.8114,246.7004,113.391,-6.7991e-05,-9.04e-06,0.0,0 STARLINK-5906,1 55962U 23037BA  24003.60306703 -.00000904  00000-0 -67991-4 0  9997,2 55962  70.0010 111.8114 0002324 246.7004 113.3910 14.98324648 45228,6950.209,96.107,573.69,570.459,0.0
55962.0,STARLINK-5906,PAYLOAD,2024-01-03 16:04:32,14.98326812,0.0002741,69.9997,111.6424,259.0083,101.0768,-6.6738e-05,-8.89e-06,0.0,0 STARLINK-5906,1 55962U 23037BA  24003.66982597 -.00000889  00000-0 -66738-4 0  9994,2 55962  69.9997 111.6424 0002741 259.0083 101.0768 14.98326812 45239,6950.203,96.107,573.973,570.163,0.0
55962.0,STARLINK-5906,PAYLOAD,2024-01-04 11:18:09,14.9832861,0.0003101,70.0,109.6224,275.9711,84.1095,6.989e-06,-1e-07,0.0,0 STARLINK-5906,1 55962U 23037BA  24004.47094319 -.00000010  00000-0  69890-5 0  9998,2 55962  70.0000 109.6224 0003101 275.9711  84.1095 14.98328610 45690,6950.197,96.107,574.217,569.907,0.0
55962.0,STARLINK-5906,PAYLOAD,2024-01-04 14:30:25,14.98329279,0.0002873,70.0004,109.2872,262.5347,97.5486,6.6197e-05,6.97e-06,0.0,0 STARLINK-5906,1 55962U 23037BA  24004.60446035  .00000697  00000-0  66197-4 0  9995,2 55962  70.0004 109.2872 0002873 262.5347  97.5486 14.98329279 45370,6950.195,96.107,574.057,570.063,0.0
55962.0,STARLINK-5906,PAYLOAD,2024-01-04 16:06:33,14.98332608,0.0002606,70.0005,109.1179,258.3748,101.7118,2.4068e-05,1.94e-06,0.0,0 STARLINK-5906,1 55962U 23037BA  24004.67121912  .00000194  00000-0  24068-4 0  9999,2 55962  70.0005 109.1179 0002606 258.3748 101.7118 14.98332608 45721,6950.185,96.107,573.861,570.239,0.0
55962.0,STARLINK-5906,PAYLOAD,2024-01-05 12:56:18,14.98325015,0.0003115,69.9989,106.9284,271.3317,88.7485,2.2985e-05,1.81e-06,0.0,0 STARLINK-5906,1 55962U 23037BA  24005.53910444  .00000181  00000-0  22985-4 0  9993,2 55962  69.9989 106.9284 0003115 271.3317  88.7485 14.98325015 45853,6950.208,96.107,574.238,569.908,0.0
